NORAD_CAT_ID,OBJECT_NAME,OBJECT_TYPE,EPOCH,MEAN_MOTION,ECCENTRICITY,INCLINATION,RA_OF_ASC_NODE,ARG_OF_PERICENTER,MEAN_ANOMALY,BSTAR,MEAN_MOTION_DOT,MEAN_MOTION_DDOT,TLE_LINE0,TLE_LINE1,TLE_LINE2,SEMIMAJOR_AXIS,PERIOD,APOGEE,PERIGEE,DECAYED
53003.0,STARLINK-4255,PAYLOAD,2023-12-23 14:16:12,15.08855981,0.0001713,53.2167,117.3084,57.3044,302.8113,-0.0002641,-4.491e-05,0.0,0 STARLINK-4255,1 53003U 22076T   23357.59459114 -.00004491  00000-0 -26410-3 0  9992,2 53003  53.2167 117.3084 0001713  57.3044 302.8113 15.08855981 81003,6917.832,95.437,540.882,538.512,0.0
53003.0,STARLINK-4255,PAYLOAD,2023-12-23 15:51:34,15.08866315,0.0001227,53.2169,117.0108,83.3474,276.7658,-0.00017546,-3.081e-05,0.0,0 STARLINK-4255,1 53003U 22076T   23357.66081975 -.00003081  00000-0 -17546-3 0  9990,2 53003  53.2169 117.0108 0001227  83.3474 276.7658 15.08866315 81483,6917.8,95.436,540.514,538.816,0.0
53003.0,STARLINK-4255,PAYLOAD,2023-12-24 14:06:57,15.0887164,0.0001204,53.2166,112.855,107.8434,252.269,0.00041408,6.314e-05,0.0,0 STARLINK-4255,1 53003U 22076T   23358.58816165  .00006314  00000-0  41408-3 0  9993,2 53003  53.2166 112.8550 0001204 107.8434 252.2690 15.08871640 81153,6917.784,95.436,540.482,538.816,0.0
53003.0,STARLINK-4255,PAYLOAD,2023-12-24 17:17:43,15.08875445,0.0001281,53.2175,112.2516,79.8798,280.2339,0.00042638,6.511e-05,0.0,0 STARLINK-4255,1 53003U 22076T   23358.72063743  .00006511  00000-0  42638-3 0  9990,2 53003  53.2175 112.2516 0001281  79.8798 280.2339 15.08875445 81647,6917.772,95.435,540.523,538.751,0.0
53003.0,STARLINK-4255,PAYLOAD,2023-12-25 12:22:24,15.08835492,0.0001385,53.2169,108.6872,68.2006,291.9134,-3.5667e-05,-8.55e-06,0.0,0 STARLINK-4255,1 53003U 22076T   23359.51555583 -.00000855  00000-0 -35667-4 0  9998,2 53003  53.2169 108.6872 0001385  68.2006 291.9134 15.08835492 81766,6917.894,95.438,540.717,538.801,0.0
53003.0,STARLINK-4255,PAYLOAD,2023-12-25 13:57:47,15.08836611,0.000139,53.2167,108.3888,79.5171,280.5978,-2.9828e-05,-7.63e-06,0.0,0 STARLINK-4255,1 53003U 22076T   23359.58179435 -.00000763  00000-0 -29828-4 0  9993,2 53003  53.2167 108.3888 0001390  79.5171 280.5978 15.08836611 81306,6917.891,95.438,540.717,538.794,0.0
53003.0,STARLINK-4255,PAYLOAD,2023-12-26 12:13:11,15.08853669,0.0001292,53.2167,104.2302,95.8087,264.3052,-0.00030495,-5.14e-05,0.0,0 STARLINK-4255,1 53003U 22076T   23360.50915713 -.00005140  00000-0 -30495-3 0  9999,2 53003  53.2167 104.2302 0001292  95.8087 264.3052 15.08853669 81440,6917.839,95.437,540.597,538.81,0.0
53003.0,STARLINK-4255,PAYLOAD,2023-12-27 12:03:56,15.08857395,0.0001493,53.2171,99.7693,94.9881,265.1282,0.0003268,4.919e-05,0.0,0 STARLINK-4255,1 53003U 22076T   23361.50273370  .00004919  00000-0  32680-3 0  9995,2 53003  53.2171  99.7693 0001493  94.9881 265.1282 15.08857395 82064,6917.827,95.436,540.725,538.659,0.0
53003.0,STARLINK-4255,PAYLOAD,2023-12-28 11:54:45,15.08835521,0.0001604,53.2169,95.3029,124.2113,235.9031,1.3382e-06,-2.67e-06,0.0,0 STARLINK-4255,1 53003U 22076T   23362.49635521 -.00000267  00000-0  13382-5 0  9997,2 53003  53.2169  95.3029 0001604 124.2113 235.9031 15.08835521 82216,6917.894,95.438,540.869,538.649,0.0
53003.0,STARLINK-4255,PAYLOAD,2023-12-28 13:30:08,15.08832015,0.0001162,53.2159,95.0065,108.9572,251.1547,-2.4744e-05,-6.81e-06,0.0,0 STARLINK-4255,1 53003U 22076T   23362.56259886 -.00000681  00000-0 -24744-4 0  9995,2 53003  53.2159  95.0065 0001162 108.9572 251.1547 15.08832015 81754,6917.905,95.438,540.574,538.966,0.0
53003.0,STARLINK-4255,PAYLOAD,2023-12-29 13:20:55,15.0885218,0.0001715,53.2165,90.5472,105.4062,254.7119,-0.00023648,-4.051e-05,0.0,0 STARLINK-4255,1 53003U 22076T   23363.55619812 -.00004051  00000-0 -23648-3 0  9990,2 53003  53.2165  90.5472 0001715 105.4062 254.7119 15.08852180 81909,6917.843,95.437,540.895,538.522,0.0
53003.0,STARLINK-4255,PAYLOAD,2023-12-30 11:36:19,15.08837135,0.0001317,53.2166,86.3849,91.4563,268.658,0.00016702,2.371e-05,0.0,0 STARLINK-4255,1 53003U 22076T   23364.48355709  .00002371  00000-0  16702-3 0  9999,2 53003  53.2166  86.3849 0001317  91.4563 268.6580 15.08837135 82516,6917.889,95.438,540.665,538.843,0.0
53003.0,STARLINK-4255,PAYLOAD,2023-12-30 13:11:42,15.08839257,0.0001316,53.2167,86.0876,89.9005,270.2138,0.00018408,2.643e-05,0.0,0 STARLINK-4255,1 53003U 22076T   23364.54979577  .00002643  00000-0  18408-3 0  9998,2 53003  53.2167  86.0876 0001316  89.9005 270.2138 15.08839257 82050,6917.883,95.438,540.658,538.837,0.0
53003.0,STARLINK-4255,PAYLOAD,2023-12-31 11:27:07,15.08835722,0.0001383,53.2166,81.9263,78.5025,281.6123,1.9716e-05,2.6e-07,0.0,0 STARLINK-4255,1 53003U 22076T   23365.47716824  .00000026  00000-0  19716-4 0  9992,2 53003  53.2166  81.9263 0001383  78.5025 281.6123 15.08835722 82663,6917.893,95.438,540.715,538.802,0.0
53003.0,STARLINK-4255,PAYLOAD,2023-12-31 13:02:30,15.08838614,0.0001325,53.2171,81.6274,90.0278,270.0866,6.7472e-05,7.86e-06,0.0,0 STARLINK-4255,1 53003U 22076T   23365.54340434  .00000786  00000-0  67472-4 0  9995,2 53003  53.2171  81.6274 0001325  90.0278 270.0866 15.08838614 82202,6917.885,95.438,540.666,538.833,0.0
53003.0,STARLINK-4255,PAYLOAD,2024-01-01 11:17:54,15.08843645,0.000152,53.2173,77.4655,81.7425,278.3739,8.8641e-06,-1.47e-06,0.0,0 STARLINK-4255,1 53003U 22076T   24001.47076440 -.00000147  00000-0  88641-5 0  9992,2 53003  53.2173  77.4655 0001520  81.7425 278.3739 15.08843645 82815,6917.869,95.437,540.786,538.683,0.0
53003.0,STARLINK-4255,PAYLOAD,2024-01-02 11:08:40,15.08843424,0.00015,53.2173,73.005,88.993,271.1234,8.842e-05,1.12e-05,0.0,0 STARLINK-4255,1 53003U 22076T   24002.46436057  .00001120  00000-0  88420-4 0  9991,2 53003  53.2173  73.0050 0001500  88.9930 271.1234 15.08843424 82494,6917.87,95.437,540.773,538.697,0.0
53003.0,STARLINK-4255,PAYLOAD,2024-01-03 10:59:28,15.08836602,0.0001479,53.2175,68.5439,103.4663,256.6494,-4.6078e-06,-3.61e-06,0.0,0 STARLINK-4255,1 53003U 22076T   24003.45796827 -.00000361  00000-0 -46078-5 0  9997,2 53003  53.2175  68.5439 0001479 103.4663 256.6494 15.08836602 83113,6917.891,95.438,540.779,538.733,0.0
53003.0,STARLINK-4255,PAYLOAD,2024-01-04 10:50:15,15.08841373,0.0001405,53.2179,64.0847,91.9506,268.1647,2.4279e-05,9.8e-07,0.0,0 STARLINK-4255,1 53003U 22076T   24004.45156672  .00000098  00000-0  24279-4 0  9999,2 53003  53.2179  64.0847 0001405  91.9506 268.1647 15.08841373 82799,6917.876,95.437,540.713,538.769,0.0
53003.0,STARLINK-4255,PAYLOAD,2024-01-05 10:41:02,15.0883565,0.0001646,53.2178,59.6239,120.2213,239.8942,1.2641e-05,-8.7e-07,0.0,0 STARLINK-4255,1 53003U 22076T   24005.44517269 -.00000087  00000-0  12641-4 0  9991,2 53003  53.2178  59.6239 0001646 120.2213 239.8942 15.08835650 83415,6917.894,95.438,540.897,538.62,0.0
53003.0,STARLINK-4255,PAYLOAD,2024-01-06 10:31:49,15.08845597,0.0001414,53.2176,55.1609,90.3707,269.7447,7.2757e-05,8.7e-06,0.0,0 STARLINK-4255,1 53003U 22076T   24006.43876694  .00000870  00000-0  72757-4 0  9994,2 53003  53.2176  55.1609 0001414  90.3707 269.7447 15.08845597 83562,6917.863,95.437,540.706,538.75,0.0
53003.0,STARLINK-4255,PAYLOAD,2024-01-07 02:25:41,15.08806481,0.0001712,53.2182,52.1896,66.9298,293.1874,0.00044002,6.715e-05,0.0,0 STARLINK-4255,1 53003U 22076T   24007.10117393  .00006715  00000-0  44002-3 0  9998,2 53003  53.2182  52.1896 0001712  66.9298 293.1874 15.08806481 83664,6917.983,95.44,541.032,538.663,0.0
53003.0,STARLINK-4255,PAYLOAD,2024-01-07 11:57:59,15.08848138,0.000152,53.2177,50.4035,107.8088,252.307,3.3779e-05,2.5e-06,0.0,0 STARLINK-4255,1 53003U 22076T   24007.49860634  .00000250  00000-0  33779-4 0  9991,2 53003  53.2177  50.4035 0001520 107.8088 252.3070 15.08848138 83720,6917.856,95.437,540.772,538.669,0.0
53003.0,STARLINK-4255,PAYLOAD,2024-01-08 11:48:46,15.08848815,0.000151,53.2183,45.9389,106.2161,253.8997,1.18e-05,-1e-06,0.0,0 STARLINK-4255,1 53003U 22076T   24008.49220550 -.00000100  00000-0  11800-4 0  9995,2 53003  53.2183  45.9389 0001510 106.2161 253.8997 15.08848815 83403,6917.853,95.437,540.763,538.674,0.0
53003.0,STARLINK-4255,PAYLOAD,2024-01-09 00:31:52,15.08842062,0.0001379,53.2175,43.5593,112.957,247.1568,-5.1196e-05,-1.103e-05,0.0,0 STARLINK-4255,1 53003U 22076T   24009.02213179 -.00001103  00000-0 -51196-4 0  9991,2 53003  53.2175  43.5593 0001379 112.9570 247.1568 15.08842062 83954,6917.874,95.437,540.693,538.785,0.0
53003.0,STARLINK-4255,PAYLOAD,2024-01-09 11:39:33,15.08844266,0.0001372,53.2182,41.4808,92.8742,267.2407,5.4585e-06,-2.01e-06,0.0,0 STARLINK-4255,1 53003U 22076T   24009.48580783 -.00000201  00000-0  54585-5 0  9992,2 53003  53.2182  41.4808 0001372  92.8742 267.2407 15.08844266 83557,6917.867,95.437,540.681,538.783,0.0
53003.0,STARLINK-4255,PAYLOAD,2024-01-10 01:58:02,15.08844006,0.0001429,53.2197,38.8001,108.8651,251.2496,-5.0187e-05,-1.087e-05,0.0,0 STARLINK-4255,1 53003U 22076T   24010.08197078 -.00001087  00000-0 -50187-4 0  9998,2 53003  53.2197  38.8001 0001429 108.8651 251.2496 15.08844006 84114,6917.868,95.437,540.722,538.745,0.0
53003.0,STARLINK-4255,PAYLOAD,2024-01-10 08:19:34,15.08849261,0.0001717,53.2173,37.6212,85.2799,274.8389,4.3423e-05,4.03e-06,0.0,0 STARLINK-4255,1 53003U 22076T   24010.34692441  .00000403  00000-0  43423-4 0  9995,2 53003  53.2173  37.6212 0001717  85.2799 274.8389 15.08849261 84154,6917.852,95.437,540.905,538.529,0.0
53003.0,STARLINK-4255,PAYLOAD,2024-01-11 01:48:49,15.08840328,0.0001847,53.2189,34.3484,100.5732,259.5468,3.7247e-05,3.05e-06,0.0,0 STARLINK-4255,1 53003U 22076T   24011.07556917  .00000305  00000-0  37247-4 0  9991,2 53003  53.2189  34.3484 0001847 100.5732 259.5468 15.08840328 84263,6917.879,95.438,541.022,538.467,0.0
53003.0,STARLINK-4255,PAYLOAD,2024-01-11 06:34:58,15.08839065,0.0002117,53.2186,33.4531,132.0243,228.093,2.4538e-05,1.02e-06,0.0,0 STARLINK-4255,1 53003U 22076T   24011.27428801  .00000102  00000-0  24538-4 0  9997,2 53003  53.2186  33.4531 0002117 132.0243 228.0930 15.08839065 83823,6917.883,95.438,541.213,538.284,0.0
